STARLINK-2249           
1 48592U 21041AR  26068.46768962  .00000171  00000+0  30331-4 0  9998
2 48592  53.0550 142.8481 0001193  85.9290 274.1835 15.06407403265028
MATS                    
1 54227U 22147A   26068.98542601  .00004118  00000+0  29671-3 0  9994
2 54227  97.6844  71.0610 0012971 166.9988 193.1575 15.04668680182840
